[{"OBJECT_NAME":"YAOGAN-30 09A","OBJECT_ID":"2021-039A","EPOCH":"2026-03-09T22:49:24.864672","MEAN_MOTION":15.02125939,"ECCENTRICITY":0.0004998,"INCLINATION":34.9966,"RA_OF_ASC_NODE":276.1989,"ARG_OF_PERICENTER":265.144,"MEAN_ANOMALY":94.8698,"EPHEMERIS_TYPE":0,"CLASSIFICATION_TYPE":"U","NORAD_CAT_ID":48423,"ELEMENT_SET_NO":999,"REV_AT_EPOCH":26461,"BSTAR":0.00029068534,"MEAN_MOTION_DOT":3.873e-5,"MEAN_MOTION_DDOT":0},{"OBJECT_NAME":"FENGYUN 1C DEB","OBJECT_ID":"1999-025DCL","EPOCH":"2026-03-08T01:32:38.043744","MEAN_MOTION":14.80481308,"ECCENTRICITY":0.0218035,"INCLINATION":98.8149,"RA_OF_ASC_NODE":16.0796,"ARG_OF_PERICENTER":161.8742,"MEAN_ANOMALY":199.0399,"EPHEMERIS_TYPE":0,"CLASSIFICATION_TYPE":"U","NORAD_CAT_ID":33603,"ELEMENT_SET_NO":999,"REV_AT_EPOCH":119,"BSTAR":0.0001936534,"MEAN_MOTION_DOT":2.149e-5,"MEAN_MOTION_DDOT":0}]
